RSP-03                  
1 65732U 98067XL  26040.59719267  .00999096  53533-3  14759-2 0  9993
2 65732  51.6147 191.1706 0007798 307.1468  52.8830 16.04362532 22477
YOTSUBA-KULOVER         
1 65941U 98067XN  26040.60348963  .00125120  00000+0  96140-3 0  9999
2 65941  51.6236 201.8484 0003984 261.2387  98.8160 15.71134450 19070
BOTAN                   
1 65942U 98067XP  26040.47075433  .00382643  00000+0  15228-2 0  9996
2 65942  51.6175 198.6624 0006415 288.6720  71.3587 15.85050158 19108
E-KAGAKU-1              
1 65943U 98067XQ  26040.47712994  .00140038  00000+0  10797-2 0  9993
2 65943  51.6272 202.5184 0003685 280.4332  79.6250 15.70999257 19056
HRC MONOBLOCK CAMERA    
1 66052U 98067XR  26040.46194505  .00052152  00000+0  65225-3 0  9992
2 66052  51.6275 207.6676 0001196 355.8810   4.2173 15.59287536 17981
HTV-X1                  
1 66174U 25241A   26040.56801308  .00009074  00000+0  17540-3 0  9990
2 66174  51.6311 211.3720 0011128  80.8535 279.3711 15.48504497   514
SZ-21 MODULE            
1 66515U 25246C   26040.27417321  .00037161  00000+0  34919-3 0  9997
2 66515  41.4766  17.9863 0002766 286.9466  73.1072 15.66393879 13617
SHENZHOU-22             
1 66645U 25272A   26040.41958423  .00018345  00000+0  22932-3 0  9994
2 66645  41.4684  20.0103 0004697  39.0740 321.0437 15.59384169267647
SOYUZ-MS 28             
1 66664U 25275A   26040.56801308  .00009074  00000+0  17540-3 0  9991
2 66664  51.6311 211.3720 0011128  80.8535 279.3711 15.48504497  1283
DUPLEX                  
1 66906U 98067XS  26040.63437951  .00032176  00000+0  48912-3 0  9992
2 66906  51.6288 209.5690 0001465  73.5284 286.5868 15.54251800 10763
ISS OBJECT XT           
1 66907U 98067XT  26040.48993232  .00120355  00000+0  13481-2 0  9994
2 66907  51.6263 208.6025 0001785 240.3700 119.7116 15.61799976 10763
ISS OBJECT XU           
1 66908U 98067XU  26040.48934183  .00117048  00000+0  13108-2 0  9996
2 66908  51.6260 208.5960 0001625 244.8883 115.1942 15.61818585 10767
